NORAD_CAT_ID,OBJECT_NAME,OBJECT_TYPE,EPOCH,MEAN_MOTION,ECCENTRICITY,INCLINATION,RA_OF_ASC_NODE,ARG_OF_PERICENTER,MEAN_ANOMALY,BSTAR,MEAN_MOTION_DOT,MEAN_MOTION_DDOT,TLE_LINE0,TLE_LINE1,TLE_LINE2,SEMIMAJOR_AXIS,PERIOD,APOGEE,PERIGEE,DECAYED
55959.0,STARLINK-5929,PAYLOAD,2024-06-22 14:48:34,14.98334965,0.0002782,70.0,40.4757,267.063,93.021,7.9075e-05,8.51e-06,0.0,0 STARLINK-5929,1 55959U 23037AX  24174.61706367  .00000851  00000-0  79075-4 0  9998,2 55959  70.0000  40.4757 0002782 267.0630  93.0210 14.98334965 70848,6950.178,96.107,573.976,570.109,0.0
55959.0,STARLINK-5929,PAYLOAD,2024-06-22 21:13:06,14.98332872,0.0002822,69.9999,39.8022,268.1461,91.9374,4.0724e-05,3.93e-06,0.0,0 STARLINK-5929,1 55959U 23037AX  24174.88410544  .00000393  00000-0  40724-4 0  9996,2 55959  69.9999  39.8022 0002822 268.1461  91.9374 14.98332872 71224,6950.184,96.107,574.01,570.088,0.0
55959.0,STARLINK-5929,PAYLOAD,2024-06-22 22:49:14,14.98332887,0.0002826,69.9999,39.6339,268.2611,91.8224,3.9155e-05,3.74e-06,0.0,0 STARLINK-5929,1 55959U 23037AX  24174.95086530  .00000374  00000-0  39155-4 0  9993,2 55959  69.9999  39.6339 0002826 268.2611  91.8224 14.98332887 70896,6950.184,96.107,574.013,570.085,0.0
55959.0,STARLINK-5929,PAYLOAD,2024-06-23 14:50:35,14.98338931,0.000284,69.9999,37.9509,270.7547,89.3287,-6.3187e-05,-8.47e-06,0.0,0 STARLINK-5929,1 55959U 23037AX  24175.61846176 -.00000847  00000-0 -63187-4 0  9996,2 55959  69.9999  37.9509 0002840 270.7547  89.3287 14.98338931 70996,6950.165,96.106,574.004,570.056,0.0
55959.0,STARLINK-5929,PAYLOAD,2024-06-23 21:15:07,14.98338746,0.0002852,70.0,37.2774,270.4509,89.6323,-6.0328e-05,-8.13e-06,0.0,0 STARLINK-5929,1 55959U 23037AX  24175.88550007 -.00000813  00000-0 -60328-4 0  9997,2 55959  70.0000  37.2774 0002852 270.4509  89.6323 14.98338746 71378,6950.166,96.106,574.013,570.049,0.0
55959.0,STARLINK-5929,PAYLOAD,2024-06-23 22:51:15,14.98339642,0.0002839,70.0001,37.1091,270.37,89.7134,-4.8209e-05,-6.68e-06,0.0,0 STARLINK-5929,1 55959U 23037AX  24175.95225873 -.00000668  00000-0 -48209-4 0  9997,2 55959  70.0001  37.1091 0002839 270.3700  89.7134 14.98339642 71048,6950.163,96.106,574.001,570.055,0.0
55959.0,STARLINK-5929,PAYLOAD,2024-06-24 14:52:35,14.98330102,0.0002838,70.0001,35.4261,270.7309,89.3525,2.7934e-06,-6e-07,0.0,0 STARLINK-5929,1 55959U 23037AX  24176.61986077 -.00000060  00000-0  27934-5 0  9999,2 55959  70.0001  35.4261 0002838 270.7309  89.3525 14.98330102 71149,6950.193,96.107,574.03,570.085,0.0
55959.0,STARLINK-5929,PAYLOAD,2024-06-24 21:17:08,14.98328176,0.0002882,70.0002,34.7528,270.7442,89.3387,-2.3569e-05,-3.74e-06,0.0,0 STARLINK-5929,1 55959U 23037AX  24176.88690265 -.00000374  00000-0 -23569-4 0  9997,2 55959  70.0002  34.7528 0002882 270.7442  89.3387 14.98328176 71521,6950.199,96.107,574.067,570.06,0.0
55959.0,STARLINK-5929,PAYLOAD,2024-06-25 14:54:36,14.98332515,0.0002854,70.0004,32.9018,268.7344,91.3488,2.5055e-06,-6.3e-07,0.0,0 STARLINK-5929,1 55959U 23037AX  24177.62125903 -.00000063  00000-0  25055-5 0  9999,2 55959  70.0004  32.9018 0002854 268.7344  91.3488 14.98332515 71295,6950.185,96.107,574.034,570.067,0.0
55959.0,STARLINK-5929,PAYLOAD,2024-06-25 21:19:08,14.98333045,0.0002853,70.0004,32.2281,268.0808,92.0025,9.486e-06,2e-07,0.0,0 STARLINK-5929,1 55959U 23037AX  24177.88829796  .00000020  00000-0  94860-5 0  9990,2 55959  70.0004  32.2281 0002853 268.0808  92.0025 14.98333045 71336,6950.183,96.107,574.031,570.066,0.0
55959.0,STARLINK-5929,PAYLOAD,2024-06-26 00:31:24,14.98334665,0.0002837,70.0005,31.8918,267.6136,92.4698,2.7117e-05,2.31e-06,0.0,0 STARLINK-5929,1 55959U 23037AX  24178.02181613  .00000231  00000-0  27117-4 0  9990,2 55959  70.0005  31.8918 0002837 267.6136  92.4698 14.98334665 71698,6950.178,96.107,574.015,570.072,0.0
55959.0,STARLINK-5929,PAYLOAD,2024-06-27 00:33:26,14.98328728,0.0002805,70.0005,29.3673,263.5976,96.4864,4.3639e-05,4.28e-06,0.0,0 STARLINK-5929,1 55959U 23037AX  24179.02321871  .00000428  00000-0  43639-4 0  9998,2 55959  70.0005  29.3673 0002805 263.5976  96.4864 14.98328728 71849,6950.197,96.107,574.011,570.112,0.0
55959.0,STARLINK-5929,PAYLOAD,2024-06-27 21:23:11,14.98328952,0.0002808,70.0005,27.1779,271.4074,88.6764,-1.7181e-05,-2.98e-06,0.0,0 STARLINK-5929,1 55959U 23037AX  24179.89110174 -.00000298  00000-0 -17181-4 0  9995,2 55959  70.0005  27.1779 0002808 271.4074  88.6764 14.98328952 71630,6950.196,96.107,574.013,570.11,0.0
55959.0,STARLINK-5929,PAYLOAD,2024-06-28 06:59:59,14.98335952,0.000281,70.0007,26.1677,271.2942,88.7895,-5.5375e-05,-7.54e-06,0.0,0 STARLINK-5929,1 55959U 23037AX  24180.29165807 -.00000754  00000-0 -55375-4 0  9998,2 55959  70.0007  26.1677 0002810 271.2942  88.7895 14.98335952 72032,6950.174,96.107,573.992,570.086,0.0
55959.0,STARLINK-5929,PAYLOAD,2024-06-28 15:00:39,14.98334531,0.0002849,70.0003,25.3259,271.0418,89.0414,8.8345e-05,9.61e-06,0.0,0 STARLINK-5929,1 55959U 23037AX  24180.62545495  .00000961  00000-0  88345-4 0  9991,2 55959  70.0003  25.3259 0002849 271.0418  89.0414 14.98334531 71743,6950.179,96.107,574.024,570.064,0.0
55959.0,STARLINK-5929,PAYLOAD,2024-06-28 21:25:11,14.98338139,0.0002814,70.0001,24.6526,271.0329,89.0507,0.00012556,1.406e-05,0.0,0 STARLINK-5929,1 55959U 23037AX  24180.89249098  .00001406  00000-0  12556-3 0  9995,2 55959  70.0001  24.6526 0002814 271.0329  89.0507 14.98338139 71788,6950.168,96.106,573.988,570.077,0.0
55959.0,STARLINK-5929,PAYLOAD,2024-06-28 23:01:19,14.98339499,0.0002808,70.0002,24.4843,271.0542,89.0295,0.00014038,1.583e-05,0.0,0 STARLINK-5929,1 55959U 23037AX  24180.95924947  .00001583  00000-0  14038-3 0  9998,2 55959  70.0002  24.4843 0002808 271.0542  89.0295 14.98339499 72133,6950.164,96.106,573.98,570.077,0.0
55959.0,STARLINK-5929,PAYLOAD,2024-06-29 15:02:39,14.98342244,0.0003174,69.9993,22.8007,270.4071,89.6724,0.00021738,2.502e-05,0.0,0 STARLINK-5929,1 55959U 23037AX  24181.62684126  .00002502  00000-0  21738-3 0  9992,2 55959  69.9993  22.8007 0003174 270.4071  89.6724 14.98342244 71897,6950.155,96.106,574.226,569.814,0.0
55959.0,STARLINK-5929,PAYLOAD,2024-06-29 19:51:05,14.9831515,0.0002873,70.0,22.2958,270.337,89.746,-0.00012469,-1.58e-05,0.0,0 STARLINK-5929,1 55959U 23037AX  24181.82714752 -.00001580  00000-0 -12469-3 0  9991,2 55959  70.0000  22.2958 0002873 270.3370  89.7460 14.98315150 72260,6950.239,96.108,574.101,570.107,0.0
55959.0,STARLINK-5929,PAYLOAD,2024-06-29 23:03:21,14.98315114,0.0002842,70.0,21.9591,270.2013,89.882,-0.00012283,-1.558e-05,0.0,0 STARLINK-5929,1 55959U 23037AX  24181.96066854 -.00001558  00000-0 -12283-3 0  9998,2 55959  70.0000  21.9591 0002842 270.2013  89.8820 14.98315114 71943,6950.239,96.108,574.079,570.129,0.0
55959.0,STARLINK-5929,PAYLOAD,2024-06-30 07:04:01,14.98320946,0.00029,69.9999,21.1172,270.3511,89.7315,-8.3785e-05,-1.092e-05,0.0,0 STARLINK-5929,1 55959U 23037AX  24182.29446564 -.00001092  00000-0 -83785-4 0  9994,2 55959  69.9999  21.1172 0002900 270.3511  89.7315 14.98320946 72334,6950.221,96.108,574.101,570.07,0.0
55959.0,STARLINK-5929,PAYLOAD,2024-06-30 13:28:33,14.98324952,0.0002919,69.9997,20.4441,271.0423,89.0402,-0.00010251,-1.316e-05,0.0,0 STARLINK-5929,1 55959U 23037AX  24182.56150449 -.00001316  00000-0 -10251-3 0  9994,2 55959  69.9997  20.4441 0002919 271.0423  89.0402 14.98324952 72031,6950.209,96.107,574.102,570.045,0.0
55959.0,STARLINK-5929,PAYLOAD,2024-06-30 21:29:13,14.98334951,0.0003068,69.9994,19.602,269.9057,90.1751,-6.288e-05,-8.43e-06,0.0,0 STARLINK-5929,1 55959U 23037AX  24182.89529763 -.00000843  00000-0 -62880-4 0  9999,2 55959  69.9994  19.6020 0003068 269.9057  90.1751 14.98334951 72429,6950.178,96.107,574.175,569.91,0.0
55959.0,STARLINK-5929,PAYLOAD,2024-07-01 15:06:42,14.98336855,0.0003009,69.9998,17.7502,269.1889,90.8925,-2.9475e-05,-4.45e-06,0.0,0 STARLINK-5929,1 55959U 23037AX  24183.62965499 -.00000445  00000-0 -29475-4 0  9992,2 55959  69.9998  17.7502 0003009 269.1889  90.8925 14.98336855 72196,6950.172,96.107,574.128,569.945,0.0
55959.0,STARLINK-5929,PAYLOAD,2024-07-01 19:55:05,14.98360947,0.0002816,69.9998,17.2452,273.6174,86.4663,-0.00037627,-4.583e-05,0.0,0 STARLINK-5929,1 55959U 23037AX  24183.82992443 -.00004583  00000-0 -37627-3 0  9997,2 55959  69.9998  17.2452 0002816 273.6174  86.4663 14.98360947 72567,6950.097,96.105,573.919,570.005,0.0
55959.0,STARLINK-5929,PAYLOAD,2024-07-01 21:31:14,14.98341385,0.0002953,69.9998,17.0768,268.9503,91.1318,9.3913e-05,1.028e-05,0.0,0 STARLINK-5929,1 55959U 23037AX  24183.89669054  .00001028  00000-0  93913-4 0  9993,2 55959  69.9998  17.0768 0002953 268.9503  91.1318 14.98341385 72576,6950.158,96.106,574.075,569.97,0.0
55959.0,STARLINK-5929,PAYLOAD,2024-07-02 13:32:35,14.98331016,0.00027,70.0019,15.3945,268.417,91.668,0.00017281,1.97e-05,0.0,0 STARLINK-5929,1 55959U 23037AX  24184.56429954  .00001970  00000-0  17281-3 0  9990,2 55959  70.0019  15.3945 0002700 268.4170  91.6680 14.98331016 72674,6950.19,96.107,573.931,570.178,0.0
55959.0,STARLINK-5929,PAYLOAD,2024-07-02 21:33:15,14.98328923,0.0002784,70.0016,14.5524,268.9732,91.1108,9.3522e-05,1.023e-05,0.0,0 STARLINK-5929,1 55959U 23037AX  24184.89810060  .00001023  00000-0  93522-4 0  9990,2 55959  70.0016  14.5524 0002784 268.9732  91.1108 14.98328923 72387,6950.196,96.107,573.996,570.126,0.0
55959.0,STARLINK-5929,PAYLOAD,2024-07-03 13:34:37,14.98284102,0.0003069,70.0004,12.8694,258.8072,101.2742,0.0010422,0.0001235,0.0,0 STARLINK-5929,1 55959U 23037AX  24185.56570649  .00012350  00000-0  10422-2 0  9992,2 55959  70.0004  12.8694 0003069 258.8072 101.2742 14.98284102 72821,6950.335,96.11,574.333,570.067,0.0
55959.0,STARLINK-5929,PAYLOAD,2024-07-03 19:59:08,14.98328878,0.0002816,70.0005,12.1959,265.3491,94.7347,0.00015183,1.719e-05,0.0,0 STARLINK-5929,1 55959U 23037AX  24185.83273903  .00001719  00000-0  15183-3 0  9992,2 55959  70.0005  12.1959 0002816 265.3491  94.7347 14.98328878 72866,6950.196,96.107,574.019,570.104,0.0
